OBJECT_NAME,OBJECT_ID,EPOCH,MEAN_MOTION,ECCENTRICITY,INCLINATION,RA_OF_ASC_NODE,ARG_OF_PERICENTER,MEAN_ANOMALY,EPHEMERIS_TYPE,CLASSIFICATION_TYPE,NORAD_CAT_ID,ELEMENT_SET_NO,REV_AT_EPOCH,BSTAR,MEAN_MOTION_DOT,MEAN_MOTION_DDOT
TJS-7,2021-077A,2026-06-29T11:56:22.682400,1.00271619,.0003556,0.3243,264.6948,115.3309,337.1932,0,U,49115,999,967,0,-.113E-5,0
CHINASAT 9B,2021-080A,2026-06-29T12:53:39.187968,1.00267311,.0002546,0.0185,15.2999,103.5223,93.6136,0,U,49125,999,1777,0,0,0
SHIJIAN-21 (SJ-21),2021-094A,2026-06-28T23:20:02.021568,1.00265801,.00495833,5.1397,61.1138,168.0170,165.8315,0,U,49330,999,547,0,-.341E-5,0
SES-17,2021-095A,2026-06-29T10:22:58.709280,1.00280651,.000175,0.0218,37.5613,71.3106,257.2979,0,U,49332,999,1797,0,-.262E-5,0
SYRACUSE 4A,2021-095B,2026-06-28T22:56:26.782656,1.00269484,.00015044,0.0278,27.9431,63.7077,215.0162,0,U,49333,999,1806,0,0,0
QZS-1R (MICHIBIKI-1R),2021-096A,2026-06-26T14:51:13.875840,1.00253032,.0755635,37.4804,79.4425,271.9684,279.4688,0,U,49336,999,1710,0,-.312E-5,0
ZHONGXING-1D,2021-114A,2026-06-29T13:12:38.727936,1.00271288,.0000506,0.0488,151.6767,9.3025,85.0012,0,U,49505,999,1694,0,-.325E-5,0
STPSAT-6,2021-118A,2026-06-29T11:52:53.017248,1.00270729,.0000995,0.3515,85.3021,272.6732,346.1188,0,U,49817,999,1669,0,-.35E-6,0
EXPRESS AMU-7,2021-123A,2026-06-29T13:06:05.716800,1.00271869,.0000625,0.0161,300.6872,66.4632,251.9910,0,U,50001,999,1666,0,-.231E-5,0
TIANLIAN 2-02,2021-124A,2026-06-29T12:13:38.482752,1.00273131,.0000804,0.8330,85.9510,183.7545,2.2711,0,U,50005,999,1674,0,-.3E-7,0
TURKSAT 5B,2021-126A,2026-06-28T19:30:11.910240,1.00271827,.00029214,0.0685,339.7777,24.2118,247.4564,0,U,50212,999,1641,0,.158E-5,0
INMARSAT 6-F1,2021-128A,2026-06-28T04:35:38.675040,1.00267629,.00003426,0.0134,312.8118,97.4862,18.6639,0,U,50319,999,1636,0,-.159E-5,0
SHIYAN-12 01 (SY-12 01),2021-129A,2026-06-28T17:49:58.548000,1.00044657,.000311,3.7032,79.7608,294.8111,220.2958,0,U,50321,999,1661,0,.139E-5,0
SHIYAN-12 02 (SY-12 02),2021-129B,2026-06-28T18:11:59.019072,1.00486402,.0003147,3.7028,79.7653,57.5858,150.4184,0,U,50322,999,1661,0,-.312E-5,0
TJS-9,2021-135A,2026-06-29T13:03:50.932800,1.00270847,.0003832,0.0055,283.9783,137.7393,189.1041,0,U,50574,999,1655,0,-.288E-5,0
USA 324,2022-006A,2026-06-06T02:06:38.886912,1.00289779,.000284,0.7690,83.2777,165.6787,110.1567,0,U,51280,999,1602,0,-.58E-6,0
GOES 18,2022-021A,2026-06-29T11:41:38.747328,1.00271171,.0000521,0.0211,186.7795,295.8146,193.3879,0,U,51850,999,671,0,.108E-5,0
ZHONGXING-6D,2022-038A,2026-06-28T21:11:50.993376,1.00273677,.0000347,0.0134,68.7084,120.3833,170.9033,0,U,52255,999,1554,0,-.342E-5,0
NILESAT 301,2022-061A,2026-06-29T10:39:49.591872,1.00272987,.00048,0.0445,0.5995,61.4177,8.4733,0,U,52817,999,1486,0,-.46E-6,0
CMS-02 (GSAT-24),2022-067A,2026-06-29T04:14:58.479936,1.00271288,.0001521,0.0351,252.6973,130.3221,40.9976,0,U,52903,999,1472,0,-.153E-5,0
MEASAT 3D,2022-067B,2026-06-29T09:25:34.400064,1.00272199,.0000759,0.0393,317.8664,101.5234,90.9981,0,U,52904,999,1477,0,-.231E-5,0
SES-22,2022-071A,2026-06-29T11:17:38.683104,1.00271483,.0001338,0.0182,355.9311,93.1031,218.9162,0,U,52933,999,764,0,.116E-5,0
WFOV (USA 332),2022-073A,2026-06-29T12:58:46.197408,1.00269350,.0001635,3.7412,78.3780,260.2334,252.9606,0,U,52940,999,1449,0,-.354E-5,0
TIANLIAN 2-03,2022-078A,2026-06-29T12:27:42.177024,1.00272144,.0001054,0.7019,77.2631,341.4175,56.3975,0,U,53100,999,1467,0,.82E-6,0
SBIRS GEO-6 (USA 336),2022-092A,2026-06-29T13:04:20.885088,1.00271818,.0002238,3.2371,317.6850,134.9164,160.1189,0,U,53355,999,1435,0,-.277E-5,0
EUTELSAT KONNECT VHTS,2022-110A,2026-06-29T09:00:10.589184,1.00270902,.0003022,0.0626,98.9498,340.8822,335.3887,0,U,53765,999,695,0,.28E-6,0
SES-20,2022-123A,2026-06-29T06:00:38.561184,1.00273467,.0002184,0.0167,53.7278,36.5645,174.0998,0,U,53960,999,1365,0,-.9E-6,0
SES-21,2022-123B,2026-06-29T11:41:38.747328,1.00268034,.0000779,0.0393,22.5883,79.3879,220.0784,0,U,53961,999,733,0,0,0
GALAXY 33 (G-33),2022-128A,2026-06-29T11:41:38.747328,1.00272442,.0002087,0.0148,1.9022,93.4014,224.6766,0,U,54026,999,1386,0,.9E-6,0
GALAXY 34 (G-34),2022-128B,2026-06-29T11:33:38.561184,1.00270902,.0001758,0.0270,6.1742,99.8066,215.9922,0,U,54027,999,1403,0,0,0
