TJS-7                   
1 49115U 21077A   26180.49748475 -.00000113  00000+0  00000+0 0  9996
2 49115   0.3243 264.6948 0003556 115.3309 337.1932  1.00271619  9671
CHINASAT 9B             
1 49125U 21080A   26180.53725912  .00000000  00000+0  00000+0 0  9991
2 49125   0.0185  15.2999 0002546 103.5223  93.6136  1.00267311 17776
SHIJIAN-21 (SJ-21)      
1 49330U 21094A   26179.97224562 -.00000341  00000+0  00000+0 0  9994
2 49330   5.1397  61.1138 0049583 168.0170 165.8315  1.00265801  5476
SES-17                  
1 49332U 21095A   26180.43262395 -.00000262  00000+0  00000+0 0  9998
2 49332   0.0218  37.5613 0001750  71.3106 257.2979  1.00280651 17978
SYRACUSE 4A             
1 49333U 21095B   26179.95586554  .00000000  00000+0  00000+0 0  9999
2 49333   0.0278  27.9431 0001504  63.7077 215.0162  1.00269484 18063
QZS-1R (MICHIBIKI-1R)   
1 49336U 21096A   26177.61891060 -.00000312  00000+0  00000+0 0  9992
2 49336  37.4804  79.4425 0755635 271.9684 279.4688  1.00253032 17101
ZHONGXING-1D            
1 49505U 21114A   26180.55044824 -.00000325  00000+0  00000+0 0  9990
2 49505   0.0488 151.6767 0000506   9.3025  85.0012  1.00271288 16943
STPSAT-6                
1 49817U 21118A   26180.49505807 -.00000035  00000+0  00000+0 0  9994
2 49817   0.3515  85.3021 0000995 272.6732 346.1188  1.00270729 16697
EXPRESS AMU-7           
1 50001U 21123A   26180.54589950 -.00000231  00000+0  00000+0 0  9992
2 50001   0.0161 300.6872 0000625  66.4632 251.9910  1.00271869 16662
TIANLIAN 2-02           
1 50005U 21124A   26180.50947318 -.00000003  00000+0  00000+0 0  9996
2 50005   0.8330  85.9510 0000804 183.7545   2.2711  1.00273131 16748
TURKSAT 5B              
1 50212U 21126A   26179.81263785  .00000158  00000+0  00000+0 0  9999
2 50212   0.0685 339.7777 0002921  24.2118 247.4564  1.00271827 16418
INMARSAT 6-F1           
1 50319U 21128A   26179.19141985 -.00000159  00000+0  00000+0 0  9999
2 50319   0.0134 312.8118 0000342  97.4862  18.6639  1.00267629 16369
SHIYAN-12 01 (SY-12 01) 
1 50321U 21129A   26179.74303875  .00000139  00000+0  00000+0 0  9999
2 50321   3.7032  79.7608 0003110 294.8111 220.2958  1.00044657 16615
SHIYAN-12 02 (SY-12 02) 
1 50322U 21129B   26179.75832198 -.00000312  00000+0  00000+0 0  9990
2 50322   3.7028  79.7653 0003147  57.5858 150.4184  1.00486402 16616
TJS-9                   
1 50574U 21135A   26180.54433950 -.00000288  00000+0  00000+0 0  9990
2 50574   0.0055 283.9783 0003832 137.7393 189.1041  1.00270847 16552
USA 324                 
1 51280U 22006A   26157.08795008 -.00000058  00000+0  00000+0 0  9996
2 51280   0.7690  83.2777 0002840 165.6787 110.1567  1.00289779 16021
GOES 18                 
1 51850U 22021A   26180.48725402  .00000108  00000+0  00000+0 0  9992
2 51850   0.0211 186.7795 0000521 295.8146 193.3879  1.00271171  6715
ZHONGXING-6D            
1 52255U 22038A   26179.88322909 -.00000342  00000+0  00000+0 0  9998
2 52255   0.0134  68.7084 0000347 120.3833 170.9033  1.00273677 15547
NILESAT 301             
1 52817U 22061A   26180.44432398 -.00000046  00000+0  00000+0 0  9997
2 52817   0.0445   0.5995 0004800  61.4177   8.4733  1.00272987 14864
CMS-02 (GSAT-24)        
1 52903U 22067A   26180.17706574 -.00000153  00000+0  00000+0 0  9998
2 52903   0.0351 252.6973 0001521 130.3221  40.9976  1.00271288 14723
MEASAT 3D               
1 52904U 22067B   26180.39275926 -.00000231  00000+0  00000+0 0  9992
2 52904   0.0393 317.8664 0000759 101.5234  90.9981  1.00272199 14775
SES-22                  
1 52933U 22071A   26180.47058661  .00000116  00000+0  00000+0 0  9994
2 52933   0.0182 355.9311 0001338  93.1031 218.9162  1.00271483  7646
WFOV (USA 332)          
1 52940U 22073A   26180.54081247 -.00000354  00000+0  00000+0 0  9993
2 52940   3.7412  78.3780 0001635 260.2334 252.9606  1.00269350 14491
TIANLIAN 2-03           
1 53100U 22078A   26180.51923816  .00000082  00000+0  00000+0 0  9998
2 53100   0.7019  77.2631 0001054 341.4175  56.3975  1.00272144 14673
SBIRS GEO-6 (USA 336)   
1 53355U 22092A   26180.54468617 -.00000277  00000+0  00000+0 0  9999
2 53355   3.2371 317.6850 0002238 134.9164 160.1189  1.00271818 14359
EUTELSAT KONNECT VHTS   
1 53765U 22110A   26180.37512256  .00000028  00000+0  00000+0 0  9998
2 53765   0.0626  98.9498 0003022 340.8822 335.3887  1.00270902  6951
SES-20                  
1 53960U 22123A   26180.25044631 -.00000090  00000+0  00000+0 0  9993
2 53960   0.0167  53.7278 0002184  36.5645 174.0998  1.00273467 13658
SES-21                  
1 53961U 22123B   26180.48725402  .00000000  00000+0  00000+0 0  9991
2 53961   0.0393  22.5883 0000779  79.3879 220.0784  1.00268034  7335
GALAXY 33 (G-33)        
1 54026U 22128A   26180.48725402  .00000090  00000+0  00000+0 0  9998
2 54026   0.0148   1.9022 0002087  93.4014 224.6766  1.00272442 13867
GALAXY 34 (G-34)        
1 54027U 22128B   26180.48169631  .00000000  00000+0  00000+0 0  9996
2 54027   0.0270   6.1742 0001758  99.8066 215.9922  1.00270902 14037
